[{"OBJECT_NAME":"ARIRANG-2 (KOMPSAT-2)","OBJECT_ID":"2006-031A","EPOCH":"2026-03-09T23:26:11.281344","MEAN_MOTION":14.64589494,"ECCENTRICITY":0.00152528,"INCLINATION":97.8302,"RA_OF_ASC_NODE":258.2159,"ARG_OF_PERICENTER":32.9467,"MEAN_ANOMALY":122.2845,"EPHEMERIS_TYPE":0,"CLASSIFICATION_TYPE":"U","NORAD_CAT_ID":29268,"ELEMENT_SET_NO":999,"REV_AT_EPOCH":4695,"BSTAR":0.00012039561,"MEAN_MOTION_DOT":5.95e-6,"MEAN_MOTION_DDOT":0},{"OBJECT_NAME":"HEAD-3C","OBJECT_ID":"2023-121C","EPOCH":"2026-03-09T23:24:32.374944","MEAN_MOTION":14.62076038,"ECCENTRICITY":0.00043416,"INCLINATION":44.9997,"RA_OF_ASC_NODE":68.3836,"ARG_OF_PERICENTER":118.4507,"MEAN_ANOMALY":241.6788,"EPHEMERIS_TYPE":0,"CLASSIFICATION_TYPE":"U","NORAD_CAT_ID":57628,"ELEMENT_SET_NO":999,"REV_AT_EPOCH":13721,"BSTAR":0.00024044057,"MEAN_MOTION_DOT":1.059e-5,"MEAN_MOTION_DDOT":0}]
